SPACEBEE-155            
1 52416U 22047Y   23012.50564826  .00022167  00000+0  11200-2 0  9990
2 52416  97.4345  97.9051 0009121 170.8297 189.3105 15.17048738 39991
SPACEBEE-154            
1 52417U 22047Z   23012.66590811  .00020963  00000+0  10448-2 0  9996
2 52417  97.4354  98.1719 0008577 166.5538 193.5925 15.17544372 40028
TRSI-3                  
1 52418U 22047AA  23011.68388775  .00019984  00000+0  10031-2 0  9991
2 52418  97.4356  97.1619 0008465 170.0783 190.0619 15.17306287 39871
MYRADAR1                
1 52419U 22047AB  23012.65128874  .00017736  00000+0  90591-3 0  9995
2 52419  97.4353  98.0129 0008612 167.9567 192.1874 15.16718939 40018
TRSI-2                  
1 52420U 22047AC  23012.93803893  .00020451  00000+0  10242-2 0  9991
2 52420  97.4351  98.3900 0008396 166.9097 193.2356 15.17382495 40061
2022-047AD              
1 52421U 22047AD  23012.50157715  .00068884  00000+0  26197-2 0  9998
2 52421  97.4335  99.2404 0006192 174.5069 185.6238 15.26489775 40084
BRO-6                   
1 52422U 22047AE  23012.75821926  .00006498  00000+0  36095-3 0  9990
2 52422  97.4402  97.7554 0008021 173.7467 285.9949 15.14022229 39990
2022-047AF              
1 52423U 22047AF  23012.50540620  .00015808  00000+0  83039-3 0  9998
2 52423  97.4358  97.6186 0006900 181.7862 178.3348 15.15764774 39978
2022-047AG              
1 52424U 22047AG  23012.23038919  .00018912  00000+0  98335-3 0  9996
2 52424  97.4413  97.5458 0007852 184.9615 175.1541 15.16081496 39930
2022-047AH              
1 52425U 22047AH  23013.01150352  .00018645  00000+0  96300-3 0  9993
2 52425  97.4369  98.2138 0007716 184.9237 175.1921 15.16322326 40050
2022-047AJ              
1 52426U 22047AJ  23012.66437304  .00009114  00000+0  48673-3 0  9990
2 52426  97.4386  97.9379 0008373 190.3535 169.7526 15.15308874 40001
2022-047AK              
1 52427U 22047AK  23012.48839945  .00039079  00000+0  18218-2 0  9992
2 52427  97.4375  98.1528 0006822 191.5461 168.5619 15.19744417 40008
JILIN-01 KUANFU 01C     
1 52443U 22048A   23013.05619308  .00004565  00000+0  27900-3 0  9995
2 52443  97.6584  82.9965 0014157 121.4767 356.7839 15.10695888 38175
JILIN-01 GAOFEN 3D 27   
1 52444U 22048B   23012.95889729  .00007604  00000+0  45198-3 0  9996
2 52444  97.6579  82.9803 0014696 119.9335  52.7266 15.11474469 38170
JILIN-01 GAOFEN 3D 28   
1 52445U 22048C   23012.92566729  .00008071  00000+0  47961-3 0  9995
2 52445  97.6558  82.9155 0014345 119.8624 350.0970 15.11470850 38175
JILIN-01 GAOFEN 3D 29   
1 52446U 22048D   23012.98001362  .00007624  00000+0  45373-3 0  9997
2 52446  97.6583  83.0860 0014075 121.5554   2.7598 15.11438277 38186
JILIN-01 GAOFEN 3D 30   
1 52447U 22048E   23012.95124262  .00007968  00000+0  47308-3 0  9991
2 52447  97.6560  83.0867 0015302 116.2021  56.6070 15.11491835 38185
JILIN-01 GAOFEN 3D 31   
1 52448U 22048F   23012.94382780  .00008073  00000+0  47989-3 0  9995
2 52448  97.6568  83.1051 0012677 128.9048  43.4461 15.11477481 38180
JILIN-01 GAOFEN 3D 32   
1 52449U 22048G   23012.96530315  .00007836  00000+0  45502-3 0  9992
2 52449  97.6578  83.2755 0014691 130.9698  42.0179 15.12311659 38193
JILIN-01 GAOFEN 3D 33   
1 52450U 22048H   23013.06453789  .00010497  00000+0  60174-3 0  9994
2 52450  97.6568  83.4025 0016530 142.7997 335.5469 15.12659039 38215
STARLINK-3870           
1 52451U 22049A   23012.92955610  .00007527  00000+0  49033-3 0  9991
2 52451  53.2154 199.5721 0002830  36.4706 323.6478 15.08853239 38392
STARLINK-3909           
1 52452U 22049B   23012.82011577 -.00001921  00000+0 -10262-3 0  9992
2 52452  53.2145 200.0719 0002426  47.9238 312.1960 15.08826520 38376
STARLINK-3872           
1 52453U 22049C   23012.78972201 -.00000315  00000+0 -16567-5 0  9990
2 52453  53.2185 200.2123 0002799  40.3560 319.7639 15.08834194 38372
STARLINK-3888           
1 52454U 22049D   23012.79339733  .00000551  00000+0  52734-4 0  9994
2 52454  53.2121 200.1932 0002393  44.3793 315.7391 15.08838593 38370
STARLINK-3890           
1 52455U 22049E   23012.78700195  .00002337  00000+0  16490-3 0  9990
2 52455  53.2132 200.2177 0002573  43.2149 316.9044 15.08835793 38375
STARLINK-3896           
1 52456U 22049F   23012.25339052 -.00000535  00000+0 -15487-4 0  9999
2 52456  53.2136 202.6175 0002874  42.3202 317.8012 15.08836009 38295
STARLINK-3899           
1 52457U 22049G   23012.91210009  .00006766  00000+0  44253-3 0  9995
2 52457  53.2160 199.6648 0002486  38.0487 322.0681 15.08861341 38397
STARLINK-3898           
1 52458U 22049H   23012.77596158 -.00001813  00000+0 -95830-4 0  9990
2 52458  53.2144 200.2650 0001639  60.9796 299.1361 15.08833176 38370
STARLINK-3856           
1 52459U 22049J   23012.23128033  .00000779  00000+0  67046-4 0  9991
2 52459  53.2161 192.7033 0002470  58.9853 301.1381 15.08841267 38427
STARLINK-3865           
1 52460U 22049K   23012.22856747  .00000782  00000+0  67202-4 0  9990
2 52460  53.2159 192.7164 0001050  97.9623 262.1488 15.08840824 38424
STARLINK-3900           
1 52461U 22049L   23011.89731953 -.00000377  00000+0 -56025-5 0  9998
2 52461  53.2161 184.2067 0002134  55.0857 305.0336 15.08843067 38357
STARLINK-3903           
1 52462U 22049M   23012.22391890  .00001004  00000+0  81164-4 0  9996
2 52462  53.2152 192.7372 0001698  80.5968 279.5216 15.08841567 38424
STARLINK-3885           
1 52463U 22049N   23012.15860193 -.00002026  00000+0 -10921-3 0  9995
2 52463  53.2153 183.0291 0003401  47.9657 312.1624 15.08832504 38557
STARLINK-3904           
1 52464U 22049P   23012.22758663 -.00005109  00000+0 -30309-3 0  9999
2 52464  53.2161 192.7261 0002209  29.8326 330.2792 15.08842723 38425
STARLINK-3863           
1 52465U 22049Q   23012.75108132  .00000299  00000+0  36946-4 0  9995
2 52465  53.2174 180.3754 0002898  50.6696 309.4552 15.08839265 38649
STARLINK-3840           
1 52466U 22049R   23012.87895138  .00000998  00000+0  80831-4 0  9996
2 52466  53.2162 189.8005 0003487  39.2049 320.9195 15.08841411 38524
STARLINK-3873           
1 52467U 22049S   23012.22024740  .00002509  00000+0  17560-3 0  9997
2 52467  53.2159 192.7605 0001546  86.9873 273.1296 15.08850078 38427
STARLINK-3864           
1 52468U 22049T   23012.86793717  .00009775  00000+0  63212-3 0  9992
2 52468  53.2153 189.8559 0002802  55.3699 304.7556 15.08795943 38529
STARLINK-3828           
1 52469U 22049U   23012.21287817  .00000078  00000+0  23032-4 0  9995
2 52469  53.2148 192.7933 0002136  53.9549 306.1640 15.08833965 38427
STARLINK-3859           
1 52470U 22049V   23012.92680042  .00000998  00000+0  80841-4 0  9994
2 52470  53.2156 189.5929 0002456  42.4821 317.6361 15.08838522 38531
STARLINK-3862           
1 52471U 22049W   23012.67289258  .00000103  00000+0  24593-4 0  9991
2 52471  53.2168 190.7255 0002654  48.4623 311.6597 15.08828400 38491
STARLINK-3881           
1 52472U 22049X   23012.79064832 -.00001335  00000+0 -65760-4 0  9995
2 52472  53.2152 190.2045 0002866  43.1753 316.9463 15.08828328 38510
STARLINK-3879           
1 52473U 22049Y   23012.93048845  .00000977  00000+0  79560-4 0  9990
2 52473  53.2146 189.5784 0002964  28.1084 332.0068 15.08819859 38535
STARLINK-3855           
1 52474U 22049Z   23012.74371592  .00000303  00000+0  37197-4 0  9991
2 52474  53.2176 180.4063 0003121  43.9675 316.1565 15.08841185 38640
STARLINK-3882           
1 52475U 22049AA  23011.79800049  .00001090  00000+0  86568-4 0  9990
2 52475  53.2148 194.6574 0002335  46.4327 313.6858 15.08836423 38200
STARLINK-3835           
1 52476U 22049AB  23012.87252099  .00001095  00000+0  86927-4 0  9991
2 52476  53.2167 179.8270 0003013  44.7718 315.3517 15.08838334 38663
STARLINK-3860           
1 52477U 22049AC  23012.87988324 -.00000434  00000+0 -91361-5 0  9996
2 52477  53.2163 179.8001 0003875  31.3193 328.8029 15.08824190 38669
STARLINK-3825           
1 52478U 22049AD  23012.78327738 -.00000412  00000+0 -77710-5 0  9991
2 52478  53.2150 190.2335 0002399  64.0137 296.1102 15.08832398 38516
STARLINK-3878           
1 52479U 22049AE  23012.73267650 -.00001584  00000+0 -81418-4 0  9993
2 52479  53.2158 180.4531 0002758  52.6047 307.5196 15.08838007 38643
STARLINK-3839           
1 52480U 22049AF  23011.85224140  .00000561  00000+0  53349-4 0  9998
2 52480  53.2150 194.4155 0002594  43.8698 316.2500 15.08844043 38212
STARLINK-3842           
1 52481U 22049AG  23012.78695799 -.00001402  00000+0 -70013-4 0  9998
2 52481  53.2157 190.2289 0002338  45.1842 314.9340 15.08830706 38515
STARLINK-3813           
1 52482U 22049AH  23012.85779455  .00002701  00000+0  18772-3 0  9993
2 52482  53.2164 179.8867 0002478  64.1302 295.9945 15.08850768 38661
STARLINK-3875           
1 52483U 22049AJ  23012.80260049  .00001179  00000+0  92177-4 0  9993
2 52483  53.2166 180.1341 0002941  51.8667 308.2590 15.08852304 38659
STARLINK-3887           
1 52484U 22049AK  23012.77592614 -.00001595  00000+0 -82129-4 0  9996
2 52484  53.2148 190.2692 0003314  37.5009 322.6213 15.08826709 38514
STARLINK-3913           
1 52485U 22049AL  23012.72900031  .00000365  00000+0  41052-4 0  9990
2 52485  53.2154 180.4688 0002567  59.9126 300.2120 15.08842494 38647
STARLINK-3918           
1 52486U 22049AM  23012.76856064  .00000333  00000+0  39036-4 0  9995
2 52486  53.2153 190.3044 0002327  67.9649 292.1591 15.08838873 38519
STARLINK-3902           
1 52487U 22049AN  23012.72995723  .00000842  00000+0  71001-4 0  9991
2 52487  53.2168 180.4606 0002823  57.7456 302.3810 15.08841897 38646
STARLINK-3892           
1 52488U 22049AP  23012.76488064  .00000387  00000+0  42469-4 0  9991
2 52488  53.2128 190.3248 0003255  51.7894 308.3391 15.08845496 38510
STARLINK-3923           
1 52489U 22049AQ  23012.77223928 -.00001137  00000+0 -53294-4 0  9993
2 52489  53.2122 190.2842 0002052  45.2983 314.8176 15.08845993 38510
